GLOBALSTAR M067         
1 32263U 07048A   25028.46587965 -.00000033  00000+0  47914-3 0  9996
2 32263  51.9730  84.7668 0001123  76.5804 302.5912 12.40665786792149
GLOBALSTAR M070         
1 32264U 07048B   25028.76733019 -.00000097  00000+0  37275-4 0  9993
2 32264  51.9727 193.2306 0001128 107.2339 270.9973 12.62311337796065
GLOBALSTAR M066         
1 32265U 07048C   25028.42734206 -.00000061  00000+0  26667-3 0  9999
2 32265  51.9676  71.1430 0000560 146.4123 316.8475 12.42169960798011
GLOBALSTAR M068         
1 32266U 07048D   25028.71531567 -.00000052  00000+0  28541-3 0  9990
2 32266  51.9907   7.4107 0000852 171.1418   5.7760 12.62814446799939
GLOBALSTAR M079         
1 37188U 10054A   25028.49337691 -.00000101  00000+0  14730-4 0  9997
2 37188  52.0014 205.0378 0000976  74.9772 332.0496 12.62270414658818
GLOBALSTAR M074         
1 37189U 10054B   25028.75088660 -.00000106  00000+0 -12135-4 0  9999
2 37189  51.9989 203.5978 0001224  93.8357 283.7193 12.62262400659456
GLOBALSTAR M076         
1 37190U 10054C   25028.77709318 -.00000092  00000+0  65851-4 0  9999
2 37190  52.0010 203.6750 0001273  78.3709 299.4388 12.62277325659178
GLOBALSTAR M077         
1 37191U 10054D   25028.68524650 -.00000116  00000+0 -66489-4 0  9990
2 37191  52.0059 160.7726 0000965 104.6713 274.0874 12.62270223659532
